{
  "type": "FeatureCollection",
  "features": [
    {
      "type": "Feature",
      "properties": {
        "norad_id": 41773,
        "name": "SKYSAT-C2",
        "group": "resource",
        "lat": 79.34994863714816,
        "lon": -23.03021543921967,
        "alt_km": 445.4693296655405,
        "timestamp": "2025-12-19T18:58:41.249680+00:00",
        "meta_object_name": "SKYSAT-C2",
        "meta_object_id": "2016-058D",
        "meta_epoch": "2025-12-18T23:52:40.992960",
        "meta_mean_motion": 15.37407901,
        "meta_eccentricity": 0.00035522,
        "meta_inclination": 97.0351,
        "meta_ra_of_asc_node": 17.257,
        "meta_arg_of_pericenter": 17.3368,
        "meta_mean_anomaly": 342.7999,
        "meta_ephemeris_type": 0,
        "meta_classification_type": "U",
        "meta_norad_cat_id": 41773,
        "meta_element_set_no": 999,
        "meta_rev_at_epoch": 51732,
        "meta_bstar": 0.0002611674,
        "meta_mean_motion_dot": 9.504e-05,
        "meta_mean_motion_ddot": 0,
        "tle_line1": "1 41773U 16058D   25352.99491890  .00009504  00000+0  26117-3 0  9995",
        "tle_line2": "2 41773  97.0351  17.2570 0003552  17.3368 342.7999 15.37407901517322"
      },
      "geometry": {
        "type": "Point",
        "coordinates": [
          -23.03021543921967,
          79.34994863714816
        ]
      }
    },
    {
      "type": "Feature",
      "properties": {
        "norad_id": 41774,
        "name": "SKYSAT-C3",
        "group": "resource",
        "lat": 82.70399605785983,
        "lon": -81.01241969408869,
        "alt_km": 423.733770167245,
        "timestamp": "2025-12-19T18:58:41.249691+00:00",
        "meta_object_name": "SKYSAT-C3",
        "meta_object_id": "2016-058E",
        "meta_epoch": "2025-12-19T01:28:38.745984",
        "meta_mean_motion": 15.44615791,
        "meta_eccentricity": 0.00018725,
        "meta_inclination": 96.9289,
        "meta_ra_of_asc_node": 26.5138,
        "meta_arg_of_pericenter": 107.4205,
        "meta_mean_anomaly": 252.725,
        "meta_ephemeris_type": 0,
        "meta_classification_type": "U",
        "meta_norad_cat_id": 41774,
        "meta_element_set_no": 999,
        "meta_rev_at_epoch": 51823,
        "meta_bstar": 0.00033013683,
        "meta_mean_motion_dot": 0.00015292,
        "meta_mean_motion_ddot": 0,
        "tle_line1": "1 41774U 16058E   25353.06155956  .00015292  00000+0  33014-3 0  9990",
        "tle_line2": "2 41774  96.9289  26.5138 0001872 107.4205 252.7250 15.44615791518235"
      },
      "geometry": {
        "type": "Point",
        "coordinates": [
          -81.01241969408869,
          82.70399605785983
        ]
      }
    },
    {
      "type": "Feature",
      "properties": {
        "norad_id": 41785,
        "name": "ALSAT 1B",
        "group": "resource",
        "lat": -80.75202941390837,
        "lon": 62.39261651828436,
        "alt_km": 669.2176232094698,
        "timestamp": "2025-12-19T18:58:41.249703+00:00",
        "meta_object_name": "ALSAT 1B",
        "meta_object_id": "2016-059C",
        "meta_epoch": "2025-12-19T07:56:41.558784",
        "meta_mean_motion": 14.72081516,
        "meta_eccentricity": 0.00107902,
        "meta_inclination": 97.7809,
        "meta_ra_of_asc_node": 4.8369,
        "meta_arg_of_pericenter": 84.7749,
        "meta_mean_anomaly": 275.469,
        "meta_ephemeris_type": 0,
        "meta_classification_type": "U",
        "meta_norad_cat_id": 41785,
        "meta_element_set_no": 999,
        "meta_rev_at_epoch": 49411,
        "meta_bstar": 4.5988254e-05,
        "meta_mean_motion_dot": 2.42e-06,
        "meta_mean_motion_ddot": 0,
        "tle_line1": "1 41785U 16059C   25353.33103656  .00000242  00000+0  45988-4 0  9996",
        "tle_line2": "2 41785  97.7809   4.8369 0010790  84.7749 275.4690 14.72081516494110"
      },
      "geometry": {
        "type": "Point",
        "coordinates": [
          62.39261651828436,
          -80.75202941390837
        ]
      }
    },
    {
      "type": "Feature",
      "properties": {
        "norad_id": 41787,
        "name": "PATHFINDER 1",
        "group": "resource",
        "lat": -52.61376398242,
        "lon": 165.88537134999794,
        "alt_km": 697.507604067423,
        "timestamp": "2025-12-19T18:58:41.249719+00:00",
        "meta_object_name": "PATHFINDER 1",
        "meta_object_id": "2016-059E",
        "meta_epoch": "2025-12-19T06:27:48.906720",
        "meta_mean_motion": 14.67332023,
        "meta_eccentricity": 0.00298773,
        "meta_inclination": 97.8136,
        "meta_ra_of_asc_node": 355.7399,
        "meta_arg_of_pericenter": 61.3433,
        "meta_mean_anomaly": 299.0771,
        "meta_ephemeris_type": 0,
        "meta_classification_type": "U",
        "meta_norad_cat_id": 41787,
        "meta_element_set_no": 999,
        "meta_rev_at_epoch": 49332,
        "meta_bstar": 0.00011011575,
        "meta_mean_motion_dot": 5.79e-06,
        "meta_mean_motion_ddot": 0,
        "tle_line1": "1 41787U 16059E   25353.26931605  .00000579  00000+0  11012-3 0  9996",
        "tle_line2": "2 41787  97.8136 355.7399 0029877  61.3433 299.0771 14.67332023493324"
      },
      "geometry": {
        "type": "Point",
        "coordinates": [
          165.88537134999794,
          -52.61376398242
        ]
      }
    },
    {
      "type": "Feature",
      "properties": {
        "norad_id": 41790,
        "name": "SCATSAT 1",
        "group": "resource",
        "lat": 18.586380964706194,
        "lon": -126.69057085410131,
        "alt_km": 610.3030450968336,
        "timestamp": "2025-12-19T18:58:41.249730+00:00",
        "meta_object_name": "SCATSAT 1",
        "meta_object_id": "2016-059H",
        "meta_epoch": "2025-12-19T03:38:36.533472",
        "meta_mean_motion": 14.78956962,
        "meta_eccentricity": 0.00564273,
        "meta_inclination": 98.1456,
        "meta_ra_of_asc_node": 49.9019,
        "meta_arg_of_pericenter": 107.7633,
        "meta_mean_anomaly": 252.9746,
        "meta_ephemeris_type": 0,
        "meta_classification_type": "U",
        "meta_norad_cat_id": 41790,
        "meta_element_set_no": 999,
        "meta_rev_at_epoch": 7497,
        "meta_bstar": 0.00015883777,
        "meta_mean_motion_dot": 1.147e-05,
        "meta_mean_motion_ddot": 0,
        "tle_line1": "1 41790U 16059H   25353.15181173  .00001147  00000+0  15884-3 0  9998",
        "tle_line2": "2 41790  98.1456  49.9019 0056427 107.7633 252.9746 14.78956962 74978"
      },
      "geometry": {
        "type": "Point",
        "coordinates": [
          -126.69057085410131,
          18.586380964706194
        ]
      }
    },
    {
      "type": "Feature",
      "properties": {
        "norad_id": 41875,
        "name": "GOKTURK 1A",
        "group": "resource",
        "lat": -15.379562728783078,
        "lon": 63.80440983359164,
        "alt_km": 689.3410194221406,
        "timestamp": "2025-12-19T18:58:41.249740+00:00",
        "meta_object_name": "GOKTURK 1A",
        "meta_object_id": "2016-073A",
        "meta_epoch": "2025-12-19T06:35:45.106368",
        "meta_mean_motion": 14.6278709,
        "meta_eccentricity": 0.00012571,
        "meta_inclination": 98.1434,
        "meta_ra_of_asc_node": 245.5527,
        "meta_arg_of_pericenter": 80.4349,
        "meta_mean_anomaly": 279.6995,
        "meta_ephemeris_type": 0,
        "meta_classification_type": "U",
        "meta_norad_cat_id": 41875,
        "meta_element_set_no": 999,
        "meta_rev_at_epoch": 48252,
        "meta_bstar": 0.00010132542,
        "meta_mean_motion_dot": 4.7e-06,
        "meta_mean_motion_ddot": 0,
        "tle_line1": "1 41875U 16073A   25353.27482762  .00000470  00000+0  10133-3 0  9999",
        "tle_line2": "2 41875  98.1434 245.5527 0001257  80.4349 279.6995 14.62787090482521"
      },
      "geometry": {
        "type": "Point",
        "coordinates": [
          63.80440983359164,
          -15.379562728783078
        ]
      }
    },
    {
      "type": "Feature",
      "properties": {
        "norad_id": 41877,
        "name": "RESOURCESAT-2A",
        "group": "resource",
        "lat": -76.18299775826173,
        "lon": 102.51504587635907,
        "alt_km": 826.7228851981154,
        "timestamp": "2025-12-19T18:58:41.249750+00:00",
        "meta_object_name": "RESOURCESAT-2A",
        "meta_object_id": "2016-074A",
        "meta_epoch": "2025-12-19T07:31:34.743648",
        "meta_mean_motion": 14.21603008,
        "meta_eccentricity": 0.00013924,
        "meta_inclination": 98.7756,
        "meta_ra_of_asc_node": 63.1316,
        "meta_arg_of_pericenter": 223.0318,
        "meta_mean_anomaly": 137.0751,
        "meta_ephemeris_type": 0,
        "meta_classification_type": "U",
        "meta_norad_cat_id": 41877,
        "meta_element_set_no": 999,
        "meta_rev_at_epoch": 46874,
        "meta_bstar": 0.00014990785,
        "meta_mean_motion_dot": 2.84e-06,
        "meta_mean_motion_ddot": 0,
        "tle_line1": "1 41877U 16074A   25353.31359657  .00000284  00000+0  14991-3 0  9992",
        "tle_line2": "2 41877  98.7756  63.1316 0001392 223.0318 137.0751 14.21603008468743"
      },
      "geometry": {
        "type": "Point",
        "coordinates": [
          102.51504587635907,
          -76.18299775826173
        ]
      }
    }
  ]
}